     4.01           N: GNSS NAV DATA    M: MIXED            RINEX VERSION / TYPE
sbf2rin-15.10.3                         20250224 134933 UTC PGM / RUN BY / DATE 
                                                            COMMENT             
                                                            END OF HEADER       
E33 2025 02 15 17 10 00 1.636968227103E-05-7.105427357601E-14 0.000000000000E+00
     7.800000000000E+01 3.431250000000E+01 2.237950362473E-09-1.832680346355E+00
     1.531094312668E-06 2.566950861365E-04 1.384690403938E-05 5.440622350693E+03
     5.802000000000E+05 2.048909664154E-08-2.519743818976E+00-2.235174179077E-08
     1.000149095379E+00 5.853125000000E+01-1.270989052607E+00-5.152000315779E-09
    -9.643258823294E-11 2.580000000000E+02 2.353000000000E+03
     3.120000000000E+00 0.000000000000E+00-3.259629011154E-09 0.000000000000E+00
     5.809400000000E+05
> EPH E10 FNAV
E10 2025 02 15 17 10 00-6.902058375999E-04-2.515321284591E-12 0.000000000000E+00
     7.800000000000E+01 1.331250000000E+01 2.162947238291E-09 2.142148967069E+00
     5.438923835754E-07 6.545451469719E-05 1.393631100655E-05 5.440618244171E+03
     5.802000000000E+05 1.303851604462E-08-2.521605711388E+00-1.490116119385E-08
     9.999735905596E-01 6.081250000000E+01-1.553192574191E-01-5.102355390725E-09
    -1.142904749427E-10 2.580000000000E+02 2.353000000000E+03
     3.120000000000E+00 0.000000000000E+00 9.313225746155E-10 0.000000000000E+00
     5.809400000000E+05
> EPH E21 FNAV
E21 2025 02 15 17 10 00-6.465583574027E-04-2.316369318578E-12 0.000000000000E+00
     7.800000000000E+01 9.565625000000E+01 3.553005139783E-09-1.495505076875E+00
     4.498288035393E-06 2.776162000373E-04 4.576519131660E-06 5.440608081818E+03
     5.802000000000E+05 5.960464477539E-08 1.669102973433E+00 7.450580596924E-09
     9.635826299757E-01 2.478750000000E+02 1.240269104198E+00-5.900602926654E-09
     4.571618997710E-10 2.580000000000E+02 2.353000000000E+03
     3.120000000000E+00 0.000000000000E+00 1.862645149231E-09 0.000000000000E+00
     5.809400000000E+05
> EPH E27 FNAV
E27 2025 02 15 17 10 00-5.837337812409E-04-9.976020010072E-12 0.000000000000E+00
     7.800000000000E+01 8.868750000000E+01 3.522646732376E-09-1.999803952662E-01
     4.058703780174E-06 3.176123136654E-04 4.457309842110E-06 5.440605491638E+03
     5.802000000000E+05 1.117587089539E-08 1.669073890621E+00 3.911554813385E-08
     9.635547862559E-01 2.482187500000E+02 7.426546536787E-01-5.868101572842E-09
     3.896590880079E-10 2.580000000000E+02 2.353000000000E+03
     3.120000000000E+00 0.000000000000E+00 1.629814505577E-09 0.000000000000E+00
     5.809400000000E+05
> EPH E11 INAV
E11 2025 02 15 17 10 00-9.843687876128E-04-2.483062644387E-10-3.469446951954E-18
     7.800000000000E+01 1.093750000000E+01 2.195448592103E-09 1.228516833732E+00
     5.494803190231E-07 4.048392875120E-04 1.377053558826E-05 5.440616308212E+03
     5.802000000000E+05-7.450580596924E-09-2.519134962711E+00-3.166496753693E-08
     9.970324815363E-01 6.234375000000E+01 3.326929572428E-01-5.121999066106E-09
    -9.321816862518E-11 5.170000000000E+02 2.353000000000E+03
     3.120000000000E+00 0.000000000000E+00-1.327134668827E-08-1.443549990654E-08
     5.809550000000E+05
> EPH E11 FNAV
E11 2025 02 15 17 10 00-9.843676234595E-04-2.483062644387E-10-3.469446951954E-18
     7.800000000000E+01 1.093750000000E+01 2.195448592103E-09 1.228516833732E+00
     5.494803190231E-07 4.048392875120E-04 1.377053558826E-05 5.440616308212E+03
     5.802000000000E+05-7.450580596924E-09-2.519134962711E+00-3.166496753693E-08
     9.970324815363E-01 6.234375000000E+01 3.326929572428E-01-5.121999066106E-09
    -9.321816862518E-11 2.580000000000E+02 2.353000000000E+03
     3.120000000000E+00 0.000000000000E+00-1.327134668827E-08 0.000000000000E+00
     5.809900000000E+05
> EPH E12 INAV
E12 2025 02 15 17 10 00-2.631003153510E-04-1.907807245516E-10 0.000000000000E+00
     7.800000000000E+01 2.018750000000E+01 2.270094558550E-09 2.452997755900E+00
     7.599592208862E-07 4.816353321075E-04 1.421943306923E-05 5.440611951828E+03
     5.802000000000E+05-2.607703208923E-08-2.519129251479E+00-5.587935447693E-09
     9.970449148770E-01 5.118750000000E+01-1.012134911939E-01-5.150571684842E-09
    -1.210764718925E-10 5.170000000000E+02 2.353000000000E+03
     3.120000000000E+00 0.000000000000E+00-1.001171767712E-08-1.001171767712E-08
     5.811950000000E+05
> EPH E12 FNAV
E12 2025 02 15 17 10 00-2.631006645970E-04-1.907807245516E-10 0.000000000000E+00
     7.800000000000E+01 2.018750000000E+01 2.270094558550E-09 2.452997755900E+00
     7.599592208862E-07 4.816353321075E-04 1.421943306923E-05 5.440611951828E+03
     5.802000000000E+05-2.607703208923E-08-2.519129251479E+00-5.587935447693E-09
     9.970449148770E-01 5.118750000000E+01-1.012134911939E-01-5.150571684842E-09
    -1.210764718925E-10 2.580000000000E+02 2.353000000000E+03
     3.120000000000E+00 0.000000000000E+00-1.001171767712E-08 0.000000000000E+00
     5.812400000000E+05
> EPH E12 INAV
E12 2025 02 15 17 20 00-2.632147516124E-04-1.907665136969E-10 0.000000000000E+00
     7.900000000000E+01 2.034375000000E+01 2.277594870968E-09 2.527369718339E+00
     7.618218660355E-07 4.818012239411E-04 1.425296068192E-05 5.440611629486E+03
     5.808000000000E+05-2.048909664154E-08-2.519132367495E+00-9.313225746155E-09
     9.970448636749E-01 4.981250000000E+01-1.012007009011E-01-5.145928634297E-09
    -1.207193141583E-10 5.170000000000E+02 2.353000000000E+03
     3.120000000000E+00 0.000000000000E+00-1.001171767712E-08-1.001171767712E-08
     5.814650000000E+05
> EPH E33 INAV
E33 2025 02 15 17 20 00 1.636939123273E-05-5.684341886081E-14 0.000000000000E+00
     7.900000000000E+01 3.584375000000E+01 2.236164573802E-09-1.757637777880E+00
     1.611188054085E-06 2.567804185674E-04 1.384317874908E-05 5.440622726440E+03
     5.808000000000E+05 2.048909664154E-08-2.519746910121E+00-2.421438694000E-08
     1.000149029547E+00 5.859375000000E+01-1.271647016105E+00-5.153071788981E-09
    -9.571827276455E-11 5.170000000000E+02 2.353000000000E+03
     3.120000000000E+00 0.000000000000E+00-3.259629011154E-09-3.725290298462E-09
     5.814650000000E+05
> EPH E21 INAV
E21 2025 02 15 17 20 00-6.465595797636E-04-2.330580173293E-12 0.000000000000E+00
     7.900000000000E+01 9.537500000000E+01 3.548362089238E-09-1.421241071938E+00
     4.474073648453E-06 2.775847679004E-04 4.598870873451E-06 5.440607986450E+03
     5.808000000000E+05 6.146728992462E-08 1.669099427319E+00 1.490116119385E-08
     9.635829371885E-01 2.476250000000E+02 1.240390919923E+00-5.895602718375E-09
     4.550189533658E-10 5.170000000000E+02 2.353000000000E+03
     3.120000000000E+00 0.000000000000E+00 1.862645149231E-09 2.095475792885E-09
     5.814650000000E+05
> EPH E11 INAV
E11 2025 02 15 17 20 00-9.845178574324E-04-2.483062644387E-10-3.469446951954E-18
     7.900000000000E+01 9.812500000000E+00 2.192591330230E-09 1.302584664280E+00
     4.842877388000E-07 4.047841066495E-04 1.377984881401E-05 5.440616582870E+03
     5.808000000000E+05-1.862645149231E-08-2.519138088967E+00-3.539025783539E-08
     9.970324186308E-01 6.221875000000E+01 3.330099467210E-01-5.117713173296E-09
    -8.857511808063E-11 5.170000000000E+02 2.353000000000E+03
     3.120000000000E+00 0.000000000000E+00-1.327134668827E-08-1.443549990654E-08
     5.814650000000E+05
> EPH E12 FNAV
E12 2025 02 15 17 20 00-2.632151008584E-04-1.907665136969E-10 0.000000000000E+00
     7.900000000000E+01 2.034375000000E+01 2.277594870968E-09 2.527369718339E+00
     7.618218660355E-07 4.818012239411E-04 1.425296068192E-05 5.440611629486E+03
     5.808000000000E+05-2.048909664154E-08-2.519132367495E+00-9.313225746155E-09
     9.970448636749E-01 4.981250000000E+01-1.012007009011E-01-5.145928634297E-09
    -1.207193141583E-10 2.580000000000E+02 2.353000000000E+03
     3.120000000000E+00 0.000000000000E+00-1.001171767712E-08 0.000000000000E+00
     5.815400000000E+05
> EPH E33 FNAV
E33 2025 02 15 17 20 00 1.636974047869E-05-5.684341886081E-14 0.000000000000E+00
     7.900000000000E+01 3.584375000000E+01 2.236164573802E-09-1.757637777880E+00
     1.611188054085E-06 2.567804185674E-04 1.384317874908E-05 5.440622726440E+03
     5.808000000000E+05 2.048909664154E-08-2.519746910121E+00-2.421438694000E-08
     1.000149029547E+00 5.859375000000E+01-1.271647016105E+00-5.153071788981E-09
    -9.571827276455E-11 2.580000000000E+02 2.353000000000E+03
     3.120000000000E+00 0.000000000000E+00-3.259629011154E-09 0.000000000000E+00
     5.815400000000E+05
> EPH E21 FNAV
E21 2025 02 15 17 20 00-6.465598708019E-04-2.330580173293E-12 0.000000000000E+00
     7.900000000000E+01 9.537500000000E+01 3.548362089238E-09-1.421241071938E+00
     4.474073648453E-06 2.775847679004E-04 4.598870873451E-06 5.440607986450E+03
     5.808000000000E+05 6.146728992462E-08 1.669099427319E+00 1.490116119385E-08
     9.635829371885E-01 2.476250000000E+02 1.240390919923E+00-5.895602718375E-09
     4.550189533658E-10 2.580000000000E+02 2.353000000000E+03
     3.120000000000E+00 0.000000000000E+00 1.862645149231E-09 0.000000000000E+00
     5.815400000000E+05
> EPH E11 FNAV
E11 2025 02 15 17 20 00-9.845166932791E-04-2.483204752934E-10-3.469446951954E-18
     7.900000000000E+01 9.812500000000E+00 2.192591330230E-09 1.302584664280E+00
     4.842877388000E-07 4.047841066495E-04 1.377984881401E-05 5.440616582870E+03
     5.808000000000E+05-1.862645149231E-08-2.519138088967E+00-3.539025783539E-08
     9.970324186308E-01 6.221875000000E+01 3.330099467210E-01-5.117713173296E-09
    -8.857511808063E-11 2.580000000000E+02 2.353000000000E+03
     3.120000000000E+00 0.000000000000E+00-1.327134668827E-08 0.000000000000E+00
     5.817400000000E+05
> EPH E27 INAV
